CUBEBUG-2 (LO-74)       
1 39440U 13066AA  26162.77121378  .00003584  00000+0  33291-3 0  9999
2 39440  97.8899 111.7263 0058871  46.5267 314.0826 14.93717789676180
FUNCUBE-1 (AO-73)       
1 39444U 13066AE  26162.55441071  .00005554  00000+0  34659-3 0  9992
2 39444  97.8262 133.8824 0035145 220.5848 139.2760 15.09420112678819
UWE-3                   
1 39446U 13066AG  26162.80152354  .00003900  00000+0  33652-3 0  9990
2 39446  97.8684 118.8390 0048431 339.1228  20.8015 14.96981046676775
UNISAT-6                
1 40012U 14033C   26162.95619580  .00002620  00000+0  28435-3 0  9992
2 40012  97.7868 315.7608 0046405  86.0856 274.5665 14.88217877645380
DUCHIFAT-1              
1 40021U 14033M   26162.90348570  .00096111  00000+0  10289-2 0  9990
2 40021  98.0478 221.3257 0003943 124.8208 235.3420 15.63537353654927
QB50P1                  
1 40025U 14033R   26162.94335838  .00007108  00000+0  35124-3 0  9995
2 40025  98.0964 173.7217 0007337 235.8215 124.2322 15.18181286652238
LILACSAT-2              
1 40908U 15049K   26162.91862819  .00015855  00000+0  27188-3 0  9993
2 40908  97.4657 199.5600 0005270 270.3771  89.6877 15.51271283594932
FOX-1A (AO-85)          
1 40967U 15058D   26162.71824684  .00002264  00000+0  20997-3 0  9995
2 40967  64.7758 295.9784 0130128  58.7261 302.6519 14.90943463112758
CAS-2T & KS-1Q          
1 41847U 16066G   26162.76895627  .00001472  00000+0  21366-3 0  9994
2 41847  98.3821 238.5671 0342619 145.8677 216.5069 14.44676151504010
RADFXSAT (FOX-1B)       
1 43017U 17073E   26162.58534500  .00008698  00000+0  38005-3 0  9999
2 43017  97.4718  29.9151 0150450 348.6412  11.1435 15.12626564464549
DIWATA-2B               
1 43678U 18084H   26162.90149909  .00002655  00000+0  21608-3 0  9994
2 43678  98.1180 358.8808 0012213 187.2831 172.8216 15.00428452415420
ES'HAIL 2               
1 43700U 18090A   26162.94982951  .00000160  00000+0  00000+0 0  9991
2 43700   0.0178 322.8967 0001570 154.1393 151.0085  1.00267802 27621
FOX-1CLIFF (AO-95)      
1 43770U 18099N   26162.11310128  .00010727  00000+0  41211-3 0  9990
2 43770  97.4393 222.3819 0008613  20.0469 340.1107 15.26583130412292
ITASAT                  
1 43786U 18099AE  26162.94940616  .00006460  00000+0  31134-3 0  9991
2 43786  97.4035 214.5656 0012691  18.7421 341.4278 15.18991868412113
JY1SAT (JO-97)          
1 43803U 18099AX  26162.74529905  .00016134  00000+0  50038-3 0  9996
2 43803  97.4133 225.5608 0004130 289.1564  70.9231 15.33481844412794
UWE-4                   
1 43880U 18111E   26162.77811530  .00033079  00000+0  68244-3 0  9992
2 43880  97.5852  90.9210 0006519   5.5235 354.6084 15.45791225409940
TIANYAN 01              
1 44881U 19093C   26162.92897950  .00000073  00000+0  14290-4 0  9992
2 44881  97.7533 235.2892 0014978 102.3062 257.9831 14.86508498350630
RS-44 & BREEZE-KM R/B   
1 44909U 19096E   26162.92339460  .00000030  00000+0  69758-4 0  9995
2 44909  82.5217 343.2034 0217940 156.4371 204.6900 12.79748770301672
SALSAT                  
1 46495U 20068K   26162.97803982  .00007008  00000+0  24606-3 0  9992
2 46495  97.8848 165.7257 0008496 329.8396  30.2352 15.29724756314566
XW-3 (CAS-9)            
1 50466U 21131B   26162.98700262  .00000422  00000+0  14399-3 0  9996
2 50466  98.4973 255.4047 0005282 108.2451 251.9313 14.41352679234362
GREENCUBE (IO-117)      
1 53109U 22080E   26152.46502029 -.00000003  00000+0  00000+0 0  9996
2 53109  70.1435 303.7143 0008869 293.3663  66.6064  6.42583280 91055
UMKA 1 (RS40S)          
1 57172U 23091G   26162.89592818  .00005527  00000+0  25359-3 0  9999
2 57172  97.5058 221.6133 0014033 134.1825 226.0566 15.20756133163203
CUBESX-HSE 3 (RS42S)    
1 57178U 23091N   26162.94566052  .00012430  00000+0  41545-3 0  9998
2 57178  97.5100 228.4667 0012137 110.7649 249.4893 15.31080586163623
MONITOR-3 (RS58S)       
1 57180U 23091Q   26162.95862941  .00009513  00000+0  35293-3 0  9999
2 57180  97.5091 226.3661 0013098 116.8255 243.4325 15.27735150163491
MONITOR-4 (RS57S)       
1 57182U 23091S   26162.93798003  .00009126  00000+0  33777-3 0  9991
2 57182  97.5085 226.3165 0013099 117.2390 243.0185 15.27824419163498
MONITOR-2 (RS39S)       
1 57184U 23091U   26162.91056309  .00004709  00000+0  22881-3 0  9993
2 57184  97.5079 221.2272 0012568 127.1985 233.0398 15.18860563163154
SVYATOBOR 1 (RS60S)     
1 57187U 23091X   26162.94658874  .00008245  00000+0  31793-3 0  9995
2 57187  97.5097 226.7345 0010911 110.0732 250.1682 15.26524550163517
VIZARD-METEO (RS38S)    
1 57189U 23091Z   26162.93574340  .00015782  00000+0  45374-3 0  9995
2 57189  97.5099 232.3157 0008561  93.5503 266.6720 15.35857512163886
POLYTECH-UNIVERSE 3 (R*)
1 57191U 23091AB  26162.93846162  .00004318  00000+0  20861-3 0  9999
2 57191  97.5055 220.7597 0016555 143.5296 216.7069 15.19062128163152
UTMN 2 (RS27S)          
1 57203U 23091AP  26162.90079718  .00011748  00000+0  38308-3 0  9995
2 57203  97.5096 230.0487 0009469  99.3925 260.8387 15.31920910163739
